{"type":"FeatureCollection","features":[{"type":"Feature","properties":{"name":"Portugal","source":"Natural Earth 1:10m/1:50m (public domain)","note":"Simplified to ~2 km for display and grid masking"},"geometry":{"type":"Polygon","coordinates":[[[-8.7771,41.9411],[-8.5896,42.0527],[-8.2661,42.1374],[-8.2131,42.1337],[-8.13,42.0182],[-8.2248,41.8959],[-8.1525,41.812],[-7.9208,41.8836],[-7.6931,41.8885],[-7.4036,41.8337],[-7.2096,41.8953],[-7.1954,41.9552],[-7.1471,41.9812],[-7.0305,41.9506],[-6.6183,41.9424],[-6.5575,41.8741],[-6.5422,41.6725],[-6.3081,41.6422],[-6.2431,41.6018],[-6.2125,41.532],[-6.4031,41.3754],[-6.6901,41.2145],[-6.7758,41.1077],[-6.9285,41.0091],[-6.8359,40.7775],[-6.8184,40.6541],[-6.8521,40.4433],[-6.8102,40.3431],[-7.0147,40.2084],[-7.0326,40.1679],[-6.8961,40.0218],[-6.9754,39.7984],[-7.0367,39.714],[-7.1177,39.6817],[-7.5357,39.6616],[-7.4451,39.5362],[-7.3354,39.4651],[-7.3058,39.3381],[-7.1724,39.1352],[-7.043,39.1071],[-6.9979,39.0564],[-7.046,38.907],[-7.2815,38.7146],[-7.343,38.4574],[-7.1064,38.181],[-6.9576,38.1879],[-7.0229,38.0447],[-7.1854,38.0063],[-7.4439,37.7283],[-7.5035,37.5855],[-7.4062,37.1794],[-7.4936,37.1683],[-7.8341,37.0057],[-7.9397,37.0054],[-8.1368,37.0771],[-8.5977,37.1213],[-8.7391,37.0746],[-8.8484,37.0757],[-8.9354,37.016],[-8.9978,37.0323],[-8.8142,37.4308],[-8.7918,37.7328],[-8.8227,37.8719],[-8.879,37.9587],[-8.8022,38.1838],[-8.8109,38.2998],[-8.8811,38.4467],[-8.6683,38.4243],[-8.7989,38.5182],[-9.2133,38.4481],[-9.2034,38.539],[-9.2504,38.6567],[-9.0933,38.6967],[-9.0215,38.7469],[-8.9771,38.8029],[-9.0005,38.903],[-8.9381,38.9981],[-8.7916,39.0782],[-8.9543,39.0161],[-9.1358,38.7428],[-9.3567,38.6979],[-9.4741,38.7309],[-9.4144,39.1121],[-9.3528,39.2481],[-9.3748,39.3383],[-9.1483,39.5426],[-8.8378,40.1157],[-8.8866,40.1794],[-8.8727,40.2591],[-8.7724,40.6057],[-8.6846,40.7525],[-8.6598,41.0863],[-8.8057,41.56],[-8.8108,41.652],[-8.7554,41.6984],[-8.8464,41.7052],[-8.8876,41.7646],[-8.8782,41.8321],[-8.7771,41.9411]]]}}]}