{"type":"FeatureCollection","features":[{"type":"Feature","properties":{"name":"Aveiro","population":54162,"admin1":"Aveiro"},"geometry":{"type":"Point","coordinates":[-8.651,40.641]}},{"type":"Feature","properties":{"name":"Leiria","population":45112,"admin1":"Leiria"},"geometry":{"type":"Point","coordinates":[-8.805,39.739]}},{"type":"Feature","properties":{"name":"Viana Do Castelo","population":15555,"admin1":"Viana do Castelo"},"geometry":{"type":"Point","coordinates":[-8.8441,41.6962]}},{"type":"Feature","properties":{"name":"Beja","population":35854,"admin1":"Beja"},"geometry":{"type":"Point","coordinates":[-7.863,38.014]}},{"type":"Feature","properties":{"name":"\u00c9vora","population":55620,"admin1":"\u00c9vora"},"geometry":{"type":"Point","coordinates":[-7.906,38.56]}},{"type":"Feature","properties":{"name":"Portalegre","population":15581,"admin1":"Portalegre"},"geometry":{"type":"Point","coordinates":[-7.423,39.29]}},{"type":"Feature","properties":{"name":"Santar\u00e9m","population":29385,"admin1":"Santar\u00e9m"},"geometry":{"type":"Point","coordinates":[-8.682,39.231]}},{"type":"Feature","properties":{"name":"Bragan\u00e7a","population":34375,"admin1":"Bragan\u00e7a"},"geometry":{"type":"Point","coordinates":[-6.755,41.808]}},{"type":"Feature","properties":{"name":"Castelo Branco","population":33479,"admin1":"Castelo Branco"},"geometry":{"type":"Point","coordinates":[-7.488,39.811]}},{"type":"Feature","properties":{"name":"Guarda","population":32111,"admin1":"Guarda"},"geometry":{"type":"Point","coordinates":[-7.262,40.541]}},{"type":"Feature","properties":{"name":"Viseu","population":26364,"admin1":"Viseu"},"geometry":{"type":"Point","coordinates":[-7.91,40.657]}},{"type":"Feature","properties":{"name":"Vila Real","population":17001,"admin1":"Vila Real"},"geometry":{"type":"Point","coordinates":[-7.737,41.294]}},{"type":"Feature","properties":{"name":"Braga","population":826833,"admin1":"Braga"},"geometry":{"type":"Point","coordinates":[-8.4213,41.555]}},{"type":"Feature","properties":{"name":"Covilh\u00e3","population":24828,"admin1":"Castelo Branco"},"geometry":{"type":"Point","coordinates":[-7.5,40.2833]}},{"type":"Feature","properties":{"name":"Portim\u00e3o","population":61226,"admin1":"Faro"},"geometry":{"type":"Point","coordinates":[-8.5333,37.1337]}},{"type":"Feature","properties":{"name":"Faro","population":41355,"admin1":"Faro"},"geometry":{"type":"Point","coordinates":[-7.9333,37.0171]}},{"type":"Feature","properties":{"name":"Coimbra","population":106582,"admin1":"Coimbra"},"geometry":{"type":"Point","coordinates":[-8.4167,40.2004]}},{"type":"Feature","properties":{"name":"Set\u00fabal","population":117974,"admin1":"Lisboa"},"geometry":{"type":"Point","coordinates":[-8.9,38.53]}},{"type":"Feature","properties":{"name":"Porto","population":1337000,"admin1":"Porto"},"geometry":{"type":"Point","coordinates":[-8.6219,41.152]}},{"type":"Feature","properties":{"name":"Lisbon","population":2812000,"admin1":"Lisboa"},"geometry":{"type":"Point","coordinates":[-9.1468,38.7247]}}]}