{"type":"FeatureCollection","features":[{"type":"Feature","properties":{"name":"Texas","source":"Natural Earth 1:10m/1:50m (public domain)","note":"Simplified to ~2 km for display and grid masking"},"geometry":{"type":"Polygon","coordinates":[[[-106.3585,31.7175],[-106.6007,31.8359],[-106.6622,32.0003],[-103.0656,32.0017],[-103.0421,36.4996],[-100.0024,36.4999],[-99.9993,34.5755],[-99.882,34.5649],[-99.6808,34.3947],[-99.5473,34.4125],[-99.4165,34.3804],[-99.3624,34.4623],[-99.2655,34.4116],[-99.1921,34.3222],[-99.1759,34.2206],[-98.9753,34.2159],[-98.7201,34.1366],[-98.586,34.1571],[-98.4907,34.0752],[-98.4165,34.079],[-98.3433,34.1435],[-98.1065,34.1497],[-98.0884,34.0278],[-97.956,33.9953],[-97.9591,33.893],[-97.9267,33.8731],[-97.8402,33.868],[-97.6406,33.9945],[-97.6028,33.979],[-97.5857,33.9064],[-97.4693,33.8921],[-97.4364,33.827],[-97.3604,33.8336],[-97.3058,33.878],[-97.267,33.8554],[-97.2118,33.9101],[-97.1777,33.8691],[-97.2006,33.7866],[-97.1441,33.7251],[-97.0938,33.7423],[-97.0548,33.8244],[-97.0752,33.8616],[-97.0177,33.8585],[-96.9851,33.9399],[-96.9327,33.9573],[-96.8892,33.9415],[-96.8508,33.8719],[-96.7484,33.8489],[-96.692,33.8546],[-96.6494,33.916],[-96.6008,33.9049],[-96.582,33.8387],[-96.4965,33.7866],[-96.4105,33.7866],[-96.3288,33.7019],[-96.2895,33.763],[-96.2027,33.7637],[-96.1467,33.8282],[-95.9379,33.8956],[-95.8604,33.854],[-95.7833,33.8554],[-95.7696,33.8964],[-95.5981,33.9521],[-95.4971,33.8753],[-95.3571,33.8682],[-95.2686,33.9046],[-95.2203,33.9629],[-94.9665,33.8553],[-94.8727,33.7559],[-94.4669,33.644],[-94.4315,33.5908],[-94.3821,33.5879],[-94.3874,33.5618],[-94.1932,33.5939],[-94.0473,33.5542],[-94.0432,31.9982],[-93.8401,31.7904],[-93.8134,31.7081],[-93.8296,31.5938],[-93.7267,31.515],[-93.7433,31.473],[-93.6545,31.3736],[-93.6759,31.32],[-93.6005,31.198],[-93.5485,31.1925],[-93.5596,31.0971],[-93.5148,31.042],[-93.5776,31.0084],[-93.5382,30.9439],[-93.5738,30.8985],[-93.5738,30.8197],[-93.7305,30.5657],[-93.7036,30.4733],[-93.7558,30.3734],[-93.7104,30.2648],[-93.7172,30.0798],[-93.7984,29.9856],[-93.8541,29.9866],[-93.9244,29.8656],[-93.9327,29.7762],[-93.8758,29.7234],[-93.8758,29.675],[-94.102,29.6706],[-94.6543,29.4519],[-94.7628,29.3665],[-94.7906,29.38],[-94.701,29.4628],[-94.5809,29.5242],[-94.5045,29.526],[-94.486,29.5661],[-94.779,29.5299],[-94.6927,29.6963],[-94.7341,29.7822],[-94.8067,29.782],[-94.8761,29.6658],[-94.9196,29.6553],[-95.0523,29.7497],[-95.0641,29.7129],[-94.9858,29.675],[-95.0157,29.6445],[-94.9845,29.6061],[-95.0239,29.5422],[-94.9078,29.4963],[-94.9651,29.4696],[-94.9429,29.422],[-94.9173,29.4423],[-94.8211,29.374],[-94.8888,29.376],[-94.9129,29.3156],[-94.9508,29.3188],[-95.1159,29.1747],[-95.1705,29.2089],[-95.1589,29.0457],[-95.3677,28.8872],[-95.6019,28.7639],[-95.952,28.6887],[-95.9402,28.6257],[-95.7192,28.7155],[-96.2189,28.4895],[-95.9849,28.6131],[-95.9878,28.6448],[-96.2265,28.5871],[-96.1369,28.6267],[-96.2154,28.6294],[-96.1881,28.6909],[-96.2604,28.6887],[-96.3458,28.6353],[-96.3902,28.6887],[-96.3833,28.73],[-96.4448,28.7639],[-96.4243,28.7086],[-96.3976,28.7121],[-96.4168,28.6437],[-96.3697,28.6267],[-96.4276,28.5954],[-96.4932,28.5789],[-96.4448,28.5974],[-96.4471,28.6356],[-96.4847,28.6126],[-96.4974,28.6448],[-96.5547,28.6472],[-96.5785,28.7121],[-96.6509,28.7297],[-96.6086,28.5789],[-96.4932,28.5106],[-96.5476,28.4693],[-96.4735,28.4936],[-96.4038,28.4349],[-96.6537,28.3195],[-96.6983,28.3359],[-96.7092,28.3998],[-96.7933,28.4797],[-96.8133,28.458],[-96.767,28.4107],[-96.8445,28.4156],[-96.7812,28.3319],[-96.7823,28.2416],[-96.8802,28.1506],[-96.9451,28.1265],[-96.9103,28.2636],[-96.9593,28.2158],[-96.973,28.1339],[-97.0202,28.1401],[-97.014,28.209],[-97.1102,28.1536],[-97.1732,28.159],[-97.1573,28.1339],[-97.2175,28.0748],[-97.1543,28.0446],[-97.1491,28.0055],[-97.1061,28.0709],[-97.0344,28.1196],[-97.0211,28.1003],[-97.0275,28.0367],[-97.1841,27.8366],[-97.2325,27.8248],[-97.212,27.8322],[-97.2672,27.8794],[-97.5211,27.8732],[-97.487,27.8353],[-97.3907,27.8459],[-97.3718,27.7553],[-97.2596,27.6951],[-97.4112,27.335],[-97.5416,27.2904],[-97.4613,27.3437],[-97.4894,27.3507],[-97.4869,27.4002],[-97.6302,27.3002],[-97.7743,27.4685],[-97.6918,27.3405],[-97.7067,27.3177],[-97.6676,27.3109],[-97.7007,27.2859],[-97.7743,27.2978],[-97.5597,27.2348],[-97.4261,27.2637],[-97.446,27.1327],[-97.4982,27.1007],[-97.4807,27.022],[-97.5628,26.9937],[-97.5455,26.9186],[-97.4813,26.8776],[-97.4932,26.8583],[-97.5484,26.8999],[-97.562,26.8379],[-97.493,26.7917],[-97.4186,26.502],[-97.4317,26.5232],[-97.4726,26.4958],[-97.4385,26.4853],[-97.4479,26.4202],[-97.3702,26.3723],[-97.3771,26.3376],[-97.3402,26.3416],[-97.3611,26.2858],[-97.3158,26.2649],[-97.3105,26.1233],[-97.212,26.0912],[-97.2467,26.0707],[-97.2556,25.9989],[-97.1926,26.0115],[-97.1518,26.075],[-97.1375,25.9745],[-97.3284,25.9333],[-97.366,25.8439],[-97.5203,25.9128],[-97.6599,26.0307],[-97.802,26.0637],[-98.0655,26.0422],[-98.0833,26.0709],[-98.2227,26.0754],[-98.4288,26.2177],[-98.4724,26.2077],[-98.5816,26.2623],[-98.6537,26.2443],[-98.8013,26.3721],[-99.1064,26.423],[-99.0915,26.484],[-99.1649,26.5404],[-99.2483,26.8271],[-99.4617,27.057],[-99.432,27.2076],[-99.5214,27.3113],[-99.4729,27.4266],[-99.515,27.5886],[-99.6002,27.6464],[-99.7004,27.6592],[-99.7404,27.7222],[-99.8329,27.7768],[-99.888,27.8648],[-99.8813,27.9065],[-99.9911,28.0078],[-100.0565,28.1379],[-100.2751,28.2772],[-100.3555,28.4782],[-100.3226,28.5104],[-100.3842,28.5372],[-100.5345,28.8302],[-100.6243,28.9247],[-100.669,29.1162],[-100.7625,29.1738],[-100.7961,29.2577],[-101.0081,29.3806],[-101.0378,29.4601],[-101.2129,29.5316],[-101.2339,29.6227],[-101.3122,29.5979],[-101.3011,29.6495],[-101.3577,29.6674],[-101.4051,29.7784],[-101.5429,29.7711],[-101.5465,29.8201],[-101.5649,29.7865],[-101.6322,29.7757],[-101.806,29.8119],[-102.1093,29.8021],[-102.321,29.8939],[-102.4061,29.7773],[-102.5153,29.7847],[-102.691,29.7368],[-102.8391,29.452],[-102.8377,29.3663],[-102.8831,29.3438],[-102.8997,29.2639],[-102.8588,29.2291],[-102.9884,29.1771],[-103.1047,29.0579],[-103.1228,28.9965],[-103.3866,29.0288],[-103.5502,29.1547],[-103.6731,29.1736],[-103.7708,29.2298],[-103.7837,29.2748],[-104.0573,29.339],[-104.2672,29.5266],[-104.3385,29.524],[-104.444,29.5892],[-104.5308,29.6679],[-104.5703,29.7875],[-104.6805,29.9423],[-104.7016,30.0553],[-104.6816,30.1929],[-104.8533,30.4122],[-104.8593,30.4973],[-104.9343,30.6105],[-105.2049,30.8024],[-105.3638,30.8504],[-105.9612,31.371],[-106.2092,31.4773],[-106.3585,31.7175]]]}}]}