{"type":"FeatureCollection","features":[{"type":"Feature","properties":{"name":"Bryan","population":146692,"admin1":"Texas"},"geometry":{"type":"Point","coordinates":[-96.3697,30.6742]}},{"type":"Feature","properties":{"name":"San Marcos","population":70371,"admin1":"Texas"},"geometry":{"type":"Point","coordinates":[-97.9411,29.8831]}},{"type":"Feature","properties":{"name":"Longview","population":75920,"admin1":"Texas"},"geometry":{"type":"Point","coordinates":[-94.7403,32.5005]}},{"type":"Feature","properties":{"name":"McAllen","population":364004,"admin1":"Texas"},"geometry":{"type":"Point","coordinates":[-98.2297,26.203]}},{"type":"Feature","properties":{"name":"Harlingen","population":110339,"admin1":"Texas"},"geometry":{"type":"Point","coordinates":[-97.6902,26.1976]}},{"type":"Feature","properties":{"name":"Alice","population":22655,"admin1":"Texas"},"geometry":{"type":"Point","coordinates":[-98.0705,27.7505]}},{"type":"Feature","properties":{"name":"New Braunfels","population":45840,"admin1":"Texas"},"geometry":{"type":"Point","coordinates":[-98.1263,29.6978]}},{"type":"Feature","properties":{"name":"Cleburne","population":35545,"admin1":"Texas"},"geometry":{"type":"Point","coordinates":[-97.3925,32.3515]}},{"type":"Feature","properties":{"name":"Brownwood","population":20988,"admin1":"Texas"},"geometry":{"type":"Point","coordinates":[-98.9823,31.7079]}},{"type":"Feature","properties":{"name":"Alpine","population":6587,"admin1":"Texas"},"geometry":{"type":"Point","coordinates":[-103.665,30.3607]}},{"type":"Feature","properties":{"name":"Van Horn","population":2175,"admin1":"Texas"},"geometry":{"type":"Point","coordinates":[-104.8322,31.0425]}},{"type":"Feature","properties":{"name":"Big Spring","population":24122,"admin1":"Texas"},"geometry":{"type":"Point","coordinates":[-101.4752,32.2432]}},{"type":"Feature","properties":{"name":"Vernon","population":11660,"admin1":"Texas"},"geometry":{"type":"Point","coordinates":[-99.2904,34.1511]}},{"type":"Feature","properties":{"name":"Childress","population":6557,"admin1":"Texas"},"geometry":{"type":"Point","coordinates":[-100.2139,34.4249]}},{"type":"Feature","properties":{"name":"Hereford","population":15675,"admin1":"Texas"},"geometry":{"type":"Point","coordinates":[-102.3986,34.8219]}},{"type":"Feature","properties":{"name":"Dalhart","population":7088,"admin1":"Texas"},"geometry":{"type":"Point","coordinates":[-102.5186,36.0608]}},{"type":"Feature","properties":{"name":"Texas City","population":69914,"admin1":"Texas"},"geometry":{"type":"Point","coordinates":[-94.9628,29.4109]}},{"type":"Feature","properties":{"name":"Pasadena","population":628492,"admin1":"Texas"},"geometry":{"type":"Point","coordinates":[-95.1477,29.6609]}},{"type":"Feature","properties":{"name":"Baytown","population":86034,"admin1":"Texas"},"geometry":{"type":"Point","coordinates":[-94.9677,29.7558]}},{"type":"Feature","properties":{"name":"Arlington","population":724777,"admin1":"Texas"},"geometry":{"type":"Point","coordinates":[-97.0202,32.6848]}},{"type":"Feature","properties":{"name":"Texarkana","population":74414,"admin1":"Arkansas"},"geometry":{"type":"Point","coordinates":[-94.0375,33.4421]}},{"type":"Feature","properties":{"name":"Conroe","population":41643,"admin1":"Texas"},"geometry":{"type":"Point","coordinates":[-95.4559,30.3121]}},{"type":"Feature","properties":{"name":"Nacogdoches","population":30691,"admin1":"Texas"},"geometry":{"type":"Point","coordinates":[-94.6553,31.6037]}},{"type":"Feature","properties":{"name":"Eagle Pass","population":53276,"admin1":"Texas"},"geometry":{"type":"Point","coordinates":[-100.4893,28.711]}},{"type":"Feature","properties":{"name":"Edinburg","population":150000,"admin1":"Texas"},"geometry":{"type":"Point","coordinates":[-98.16,26.3032]}},{"type":"Feature","properties":{"name":"Kingsville","population":25264,"admin1":"Texas"},"geometry":{"type":"Point","coordinates":[-97.8558,27.516]}},{"type":"Feature","properties":{"name":"Port Arthur","population":56945,"admin1":"Texas"},"geometry":{"type":"Point","coordinates":[-93.9286,29.899]}},{"type":"Feature","properties":{"name":"Huntsville","population":35590,"admin1":"Texas"},"geometry":{"type":"Point","coordinates":[-95.5506,30.7238]}},{"type":"Feature","properties":{"name":"Killeen","population":137919,"admin1":"Texas"},"geometry":{"type":"Point","coordinates":[-97.7275,31.1173]}},{"type":"Feature","properties":{"name":"Lufkin","population":43264,"admin1":"Texas"},"geometry":{"type":"Point","coordinates":[-94.7289,31.3384]}},{"type":"Feature","properties":{"name":"Del Rio","population":36068,"admin1":"Texas"},"geometry":{"type":"Point","coordinates":[-100.8964,29.3629]}},{"type":"Feature","properties":{"name":"San Angelo","population":88256,"admin1":"Texas"},"geometry":{"type":"Point","coordinates":[-100.4367,31.464]}},{"type":"Feature","properties":{"name":"Sherman","population":40284,"admin1":"Texas"},"geometry":{"type":"Point","coordinates":[-96.6086,33.636]}},{"type":"Feature","properties":{"name":"Beaumont","population":111485,"admin1":"Texas"},"geometry":{"type":"Point","coordinates":[-94.1017,30.0863]}},{"type":"Feature","properties":{"name":"Bay City","population":18663,"admin1":"Texas"},"geometry":{"type":"Point","coordinates":[-95.9644,28.9811]}},{"type":"Feature","properties":{"name":"Port Lavaca","population":11743,"admin1":"Texas"},"geometry":{"type":"Point","coordinates":[-96.6297,28.616]}},{"type":"Feature","properties":{"name":"Falfurrias","population":5349,"admin1":"Texas"},"geometry":{"type":"Point","coordinates":[-98.1449,27.2269]}},{"type":"Feature","properties":{"name":"Beeville","population":13004,"admin1":"Texas"},"geometry":{"type":"Point","coordinates":[-97.7508,28.406]}},{"type":"Feature","properties":{"name":"Fort Stockton","population":7721,"admin1":"Texas"},"geometry":{"type":"Point","coordinates":[-102.885,30.8917]}},{"type":"Feature","properties":{"name":"Pecos","population":8372,"admin1":"Texas"},"geometry":{"type":"Point","coordinates":[-103.4999,31.4158]}},{"type":"Feature","properties":{"name":"Dumas","population":13629,"admin1":"Texas"},"geometry":{"type":"Point","coordinates":[-101.9669,35.8624]}},{"type":"Feature","properties":{"name":"Denton","population":176930,"admin1":"Texas"},"geometry":{"type":"Point","coordinates":[-97.1288,33.2158]}},{"type":"Feature","properties":{"name":"Midland","population":98501,"admin1":"Texas"},"geometry":{"type":"Point","coordinates":[-102.0975,32.0307]}},{"type":"Feature","properties":{"name":"Temple","population":61161,"admin1":"Texas"},"geometry":{"type":"Point","coordinates":[-97.363,31.1021]}},{"type":"Feature","properties":{"name":"Galveston","population":68612,"admin1":"Texas"},"geometry":{"type":"Point","coordinates":[-94.7975,29.3011]}},{"type":"Feature","properties":{"name":"Freeport","population":74892,"admin1":"Texas"},"geometry":{"type":"Point","coordinates":[-95.3569,28.9595]}},{"type":"Feature","properties":{"name":"Victoria","population":64209,"admin1":"Texas"},"geometry":{"type":"Point","coordinates":[-97.0033,28.805]}},{"type":"Feature","properties":{"name":"Odessa","population":106054,"admin1":"Texas"},"geometry":{"type":"Point","coordinates":[-102.3672,31.8456]}},{"type":"Feature","properties":{"name":"Wichita Falls","population":101212,"admin1":"Texas"},"geometry":{"type":"Point","coordinates":[-98.4931,33.9136]}},{"type":"Feature","properties":{"name":"Waco","population":167347,"admin1":"Texas"},"geometry":{"type":"Point","coordinates":[-97.1464,31.5492]}},{"type":"Feature","properties":{"name":"Lubbock","population":213300,"admin1":"Texas"},"geometry":{"type":"Point","coordinates":[-101.88,33.58]}},{"type":"Feature","properties":{"name":"Abilene","population":114247,"admin1":"Texas"},"geometry":{"type":"Point","coordinates":[-99.7328,32.4486]}},{"type":"Feature","properties":{"name":"Brownsville","population":181399,"admin1":"Texas"},"geometry":{"type":"Point","coordinates":[-97.5,25.92]}},{"type":"Feature","properties":{"name":"Tyler","population":112245,"admin1":"Texas"},"geometry":{"type":"Point","coordinates":[-95.3008,32.3511]}},{"type":"Feature","properties":{"name":"Ft.  Worth","population":1440454,"admin1":"Texas"},"geometry":{"type":"Point","coordinates":[-97.34,32.74]}},{"type":"Feature","properties":{"name":"Corpus Christi","population":277454,"admin1":"Texas"},"geometry":{"type":"Point","coordinates":[-97.4019,27.7428]}},{"type":"Feature","properties":{"name":"Austin","population":1161000,"admin1":"Texas"},"geometry":{"type":"Point","coordinates":[-97.7447,30.2689]}},{"type":"Feature","properties":{"name":"Amarillo","population":181766,"admin1":"Texas"},"geometry":{"type":"Point","coordinates":[-101.83,35.23]}},{"type":"Feature","properties":{"name":"El Paso","population":753000,"admin1":"Texas"},"geometry":{"type":"Point","coordinates":[-106.5119,31.7819]}},{"type":"Feature","properties":{"name":"Laredo","population":434768,"admin1":"Texas"},"geometry":{"type":"Point","coordinates":[-99.5072,27.5061]}},{"type":"Feature","properties":{"name":"San Antonio","population":1473000,"admin1":"Texas"},"geometry":{"type":"Point","coordinates":[-98.5093,29.4893]}},{"type":"Feature","properties":{"name":"Dallas","population":4798000,"admin1":"Texas"},"geometry":{"type":"Point","coordinates":[-96.842,32.822]}},{"type":"Feature","properties":{"name":"Houston","population":4459000,"admin1":"Texas"},"geometry":{"type":"Point","coordinates":[-95.3419,29.8219]}}]}